KAZSTSAT                
1 43783U 18099AB  26068.61895971  .00001354  00000+0  11446-3 0  9991
2 43783  97.4396 105.0128 0006528  11.1145 349.0222 14.99620503396386
STARLINK-35856          
1 67013U 25293L   26068.81596626  .00005002  00000+0  42668-3 0  9998
2 67013  70.0021  94.2635 0002855 271.6812  88.4020 14.98330046 14909
